satname,norad_id,inclination_deg,eccentricity,mean_motion_rev_per_day,perigee_km,apogee_km,l1,l2
STARLINK-1513,45786,53.0545,0.0001334,15.06382531,546.3412497847539,548.1889470646138,1 45786U 20038BJ  26023.33380892 -.00001319  00000+0 -69729-4 0  9994,2 45786  53.0545  40.2292 0001334  83.8894 276.2247 15.06382531309921
STARLINK-1522,46027,53.054,0.0001427,15.06404339,546.2100142185891,548.1865049016678,1 46027U 20055A   26023.57983137  .00003555  00000+0  25742-3 0  9997,2 46027  53.0540 329.1241 0001427  90.5080 269.6073 15.06404339302087
STARLINK-1523,46028,53.0542,9.63e-05,15.06430121,546.4523407735242,547.7861451259168,1 46028U 20055B   26023.26283869  .00014855  00000+0  10132-2 0  9990,2 46028  53.0542 330.5484 0000963 105.0512 255.0583 15.06430121302051
STARLINK-1526,46029,53.0549,0.0001591,15.06434761,546.0032165226276,548.2068285341966,1 46029U 20055C   26023.25547326  .00016106  00000+0  10967-2 0  9998,2 46029  53.0549 330.5791 0001591  66.9083 293.2073 15.06434761302047
STARLINK-1555,46032,53.0542,0.0001377,15.06436718,546.1454198418123,548.0526298430541,1 46032U 20055F   26023.57246820  .00027209  00000+0  18367-2 0  9990,2 46032  53.0542 329.1564 0001377  85.1126 275.0021 15.06436718302099
STARLINK-1556,46033,53.0546,0.0001958,15.06423092,545.7848157978733,548.496754578553,1 46033U 20055G   26023.55405194  .00017955  00000+0  12204-2 0  9991,2 46033  53.0546 329.2399 0001958  82.3266 277.7945 15.06423092302062
STARLINK-1557,46034,53.0561,0.0001656,15.06378147,546.1316862329504,548.425383858158,1 46034U 20055H   26023.22600322  .00012016  00000+0  82470-3 0  9992,2 46034  53.0561 330.7100 0001656  77.3932 282.7242 15.06378147302017
STARLINK-1558,46035,53.0539,0.0001594,15.06416377,546.0574726873074,548.2652578061479,1 46035U 20055J   26023.23336099  .00007922  00000+0  54990-3 0  9997,2 46035  53.0539 330.6801 0001594 104.9420 255.1746 15.06416377302044
STARLINK-1560,46036,53.0526,0.0001236,15.06426807,546.2734366355744,547.9853624895459,1 46036U 20055K   26023.55034966  .00011131  00000+0  76444-3 0  9996,2 46036  53.0526 329.2562 0001236  85.0071 275.1059 15.06426807302096
STARLINK-1567,46038,53.0538,0.0001396,15.06452528,546.0838156766276,548.0173280466915,1 46038U 20055M   26023.56140670  .00026401  00000+0  17821-2 0  9998,2 46038  53.0538 329.2071 0001396  79.4192 280.6954 15.06452528302087
STARLINK-1569,46039,53.0538,0.0002263,15.06435501,545.5355728666709,548.6699363796142,1 46039U 20055N   26023.17070734  .00024435  00000+0  16520-2 0  9999,2 46039  53.0538 330.9615 0002263  95.9187 264.2060 15.06435501302024
STARLINK-1582,46043,53.0546,7.82e-05,15.06434537,546.5641550499868,547.6472630096787,1 46043U 20055S   26023.11172374  .00028605  00000+0  19297-2 0  9998,2 46043  53.0546 331.2237 0000782  43.7190 316.3861 15.06434537302016
STARLINK-1591,46045,53.0559,0.0001912,15.06418152,545.8318092239815,548.4800412385894,1 46045U 20055U   26023.53560028  .00020821  00000+0  14119-2 0  9993,2 46045  53.0559 329.3285 0001912 110.3110 249.8085 15.06418152302060
STARLINK-1524,46047,53.0546,0.0001896,15.06410638,545.8659142873848,548.491994097214,1 46047U 20055W   26023.55495662  .00002784  00000+0  20567-3 0  9991,2 46047  53.0546 319.2334 0001896 104.2366 255.8834 15.06410638302225
STARLINK-1527,46048,53.0525,0.0001477,15.0640421,546.1757828484469,548.2215270009128,1 46048U 20055X   26023.21955212  .00011275  00000+0  77453-3 0  9998,2 46048  53.0525 320.7409 0001477  61.2286 298.8851 15.06404210302158
STARLINK-1540,46051,53.0558,0.0002145,15.06423232,545.654884126483,548.6258281122591,1 46051U 20055AA  26023.18636792  .00014247  00000+0  97278-3 0  9996,2 46051  53.0558 320.8916 0002145  84.6218 275.5016 15.06423232302182
STARLINK-1541,46052,53.0538,0.0001687,15.06440736,545.91842553875,548.2549960187662,1 46052U 20055AB  26023.23797257  .00016590  00000+0  11288-2 0  9996,2 46052  53.0538 320.6580 0001687  90.1712 269.9470 15.06440736302153
STARLINK-1543,46053,53.0533,0.000137,15.06399003,546.2658404303047,548.1633867724331,1 46053U 20055AC  26023.50703187  .00000481  00000+0  51170-4 0  9994,2 46053  53.0533 319.4495 0001370  83.0409 277.0736 15.06399003302226
STARLINK-1548,46054,53.0546,0.0001307,15.06458967,546.1257190346987,547.9359579076745,1 46054U 20055AD  26023.51440629  .00027458  00000+0  18521-2 0  9999,2 46054  53.0546 319.4178 0001307 106.5977 253.5156 15.06458967302220
STARLINK-1554,46055,53.0583,0.0001717,15.06431321,545.9264993821034,548.3046311130101,1 46055U 20055AE  26023.10160028  .00013390  00000+0  91531-3 0  9990,2 46055  53.0583 321.2717 0001717  81.6900 278.4283 15.06431321302161
STARLINK-1564,46058,53.0541,0.000136,15.06396577,546.2802001294813,548.1638977907987,1 46058U 20055AH  26023.51079040  .00014188  00000+0  96954-3 0  9991,2 46058  53.0541 319.8968 0001360  84.6624 275.4520 15.06396577302219
STARLINK-1570,46059,53.0547,9.86e-05,15.06386343,546.5705714976202,547.9362584874561,1 46059U 20055AJ  26023.54021967  .00003834  00000+0  27624-3 0  9994,2 46059  53.0547 319.3026 0000986 102.0819 258.0280 15.06386343302186
STARLINK-1572,46060,53.0551,0.0001102,15.06442454,546.3182865257995,547.8446046712079,1 46060U 20055AK  26023.20479771  .00029926  00000+0  20171-2 0  9998,2 46060  53.0551 320.8054 0001102 107.6479 252.4631 15.06442454302145
STARLINK-1573,46061,53.0545,0.0001565,15.06453638,545.9633787487037,548.1309613939347,1 46061U 20055AL  26023.53284318  .00021387  00000+0  14482-2 0  9997,2 46061  53.0545 319.3722 0001565  79.5835 280.5330 15.06453638302223
STARLINK-1577,46063,53.0548,0.0001585,15.06393761,546.1330088634704,548.3283504179153,1 46063U 20055AN  26023.09421299  .00002711  00000+0  20087-3 0  9990,2 46063  53.0548 321.3038 0001585  90.1465 269.9706 15.06393761302151
STARLINK-1583,46064,53.0538,0.0001494,15.06422643,546.1075245670354,548.1767979804235,1 46064U 20055AP  26023.19374450  .00014722  00000+0  10045-2 0  9995,2 46064  53.0538 320.8571 0001494  73.9494 286.1659 15.06422643302179
STARLINK-1525,46066,53.0539,0.000162,15.06393257,546.1103145248544,548.3541341535401,1 46066U 20055AR  26023.05919417  .00003246  00000+0  23675-3 0  9993,2 46066  53.0539 301.4610 0001620  72.6522 287.4644 15.06393257302424
STARLINK-1536,46070,53.0527,0.0001731,15.06445798,545.8724436815255,548.2699507594034,1 46070U 20055AV  26023.16978590  .00027936  00000+0  18846-2 0  9992,2 46070  53.0527 300.9658 0001731  81.2528 278.8657 15.06445798302456
